NORAD_CAT_ID,OBJECT_NAME,OBJECT_TYPE,EPOCH,MEAN_MOTION,ECCENTRICITY,INCLINATION,RA_OF_ASC_NODE,ARG_OF_PERICENTER,MEAN_ANOMALY,BSTAR,MEAN_MOTION_DOT,MEAN_MOTION_DDOT,TLE_LINE0,TLE_LINE1,TLE_LINE2,SEMIMAJOR_AXIS,PERIOD,APOGEE,PERIGEE,DECAYED
49149.0,STARLINK-3053,PAYLOAD,2022-01-19 22:00:00,14.98343933,0.0003592,69.998,141.1355,284.8621,51.264,-0.0036288,-0.00043144,0.0,0 STARLINK-3053,1 49149U 21082V   22019.91667824 -.00043144  00000-0 -36288-2 0  9994,2 49149  69.9980 141.1355 0003592 284.8621  51.2640 14.98343933  3569,6950.15,96.106,574.511,569.518,0.0
49149.0,STARLINK-3053,PAYLOAD,2022-01-20 14:00:01,14.98331865,0.000365,69.9984,139.4544,282.7986,48.2897,-0.00033323,-4.067e-05,0.0,0 STARLINK-3053,1 49149U 21082V   22020.58334491 -.00004067  00000-0 -33323-3 0  9999,2 49149  69.9984 139.4544 0003650 282.7986  48.2897 14.98331865  3571,6950.187,96.107,574.589,569.515,0.0
49149.0,STARLINK-3053,PAYLOAD,2022-01-20 20:00:01,14.98333616,0.0003693,69.9981,138.8239,284.6805,314.5785,0.00024325,2.811e-05,0.0,0 STARLINK-3053,1 49149U 21082V   22020.83335648  .00002811  00000-0  24325-3 0  9997,2 49149  69.9981 138.8239 0003693 284.6805 314.5785 14.98333616 21177,6950.182,96.107,574.613,569.48,0.0
49149.0,STARLINK-3053,PAYLOAD,2022-01-20 22:00:00,14.98361658,0.0003676,69.998,138.6138,283.9237,44.6374,-0.0052527,-0.00062269,0.0,0 STARLINK-3053,1 49149U 21082V   22020.91667824 -.00062269  00000-0 -52527-2 0  9999,2 49149  69.9980 138.6138 0003676 283.9237  44.6374 14.98361658  3558,6950.095,96.105,574.515,569.405,0.0
49149.0,STARLINK-3053,PAYLOAD,2022-01-21 12:00:00,14.98328111,0.0003639,69.9984,137.1428,281.1604,312.9892,-0.0028351999999999,-0.0003376,0.0,0 STARLINK-3053,1 49149U 21082V   22021.50001157 -.00033760  00000-0 -28352-2 0  9999,2 49149  69.9984 137.1428 0003639 281.1604 312.9892 14.98328111 21277,6950.199000000001,96.107,574.5930000000002,569.535,0.0
49149.0,STARLINK-3053,PAYLOAD,2022-01-21 14:00:01,14.983104199999998,0.0003646,69.9983,136.9327,282.9086,40.6134,-0.000188,-2.335e-05,0.0,0 STARLINK-3053,1 49149U 21082V   22021.58334491 -.00002335  00000-0 -18800-3 0  9999,2 49149  69.9983 136.9327 0003646 282.9086  40.6134 14.98310420  3584,6950.253000000002,96.108,574.653,569.5840000000002,0.0
49149.0,STARLINK-3053,PAYLOAD,2022-01-21 22:00:00,14.98336726,0.0003678,69.998,136.0921,283.8288,37.1441,-0.0041149,-0.00048862,0.0,0 STARLINK-3053,1 49149U 21082V   22021.91667824 -.00048862  00000-0 -41149-2 0  9991,2 49149  69.9980 136.0921 0003678 283.8288  37.1441 14.98336726  3568,6950.172,96.107,574.5930000000002,569.481,0.0
49149.0,STARLINK-3053,PAYLOAD,2022-01-22 04:00:00,14.98280735,0.0003668,69.9981,135.4617,279.664,309.4237,0.0057959,0.00069668,0.0,0 STARLINK-3053,1 49149U 21082V   22022.16667824  .00069668  00000-0  57959-2 0  9990,2 49149  69.9981 135.4617 0003668 279.6640 309.4237 14.98280735 21373,6950.345,96.11,574.76,569.661,0.0
49149.0,STARLINK-3053,PAYLOAD,2022-01-22 10:00:01,14.98345471,0.00037,69.9983,134.8313,280.0424,217.188,-0.0034689,-0.0004126,0.0,0 STARLINK-3053,1 49149U 21082V   22022.41668981 -.00041260  00000-0 -34689-2 0  9998,2 49149  69.9983 134.8313 0003700 280.0424 217.1880 14.98345471  3574,6950.145,96.106,574.582,569.438,0.0
49149.0,STARLINK-3053,PAYLOAD,2022-01-22 12:00:00,14.98335391,0.0003734,69.9982,134.6212,281.4673,305.076,-0.0026556,-0.00031643,0.0,0 STARLINK-3053,1 49149U 21082V   22022.50001157 -.00031643  00000-0 -26556-2 0  9992,2 49149  69.9982 134.6212 0003734 281.4673 305.0760 14.98335391 21425,6950.176,96.107,574.636,569.446,0.0
49149.0,STARLINK-3053,PAYLOAD,2022-01-22 22:00:00,14.98348131,0.0003713,69.9978,133.5706,283.9492,29.4342,-0.0041828999999999,-0.00049677,0.0,0 STARLINK-3053,1 49149U 21082V   22022.91667824 -.00049677  00000-0 -41829-2 0  9992,2 49149  69.9978 133.5706 0003713 283.9492  29.4342 14.98348131  3574,6950.137,96.106,574.582,569.4209999999998,0.0
49149.0,STARLINK-3053,PAYLOAD,2022-01-23 04:00:00,14.98294155,0.00037,69.9978,132.9402,279.9481,301.561,0.0057554,0.000692,0.0,0 STARLINK-3053,1 49149U 21082V   22023.16667824  .00069200  00000-0  57554-2 0  9994,2 49149  69.9978 132.9402 0003700 279.9481 301.5610 14.98294155 21522,6950.304,96.109,574.74,569.597,0.0
49149.0,STARLINK-3053,PAYLOAD,2022-01-23 12:00:00,14.98344322,0.0003773,69.9979,132.0997,282.2233,296.7576,-0.0021772,-0.00025986,0.0,0 STARLINK-3053,1 49149U 21082V   22023.50001157 -.00025986  00000-0 -21772-2 0  9991,2 49149  69.9979 132.0997 0003773 282.2233 296.7576 14.98344322 21578,6950.149,96.106,574.636,569.391,0.0
49149.0,STARLINK-3053,PAYLOAD,2022-01-23 14:00:01,14.9832579,0.0003762,69.9978,131.8896,284.0303,24.3288,0.00087297,0.00010338,0.0,0 STARLINK-3053,1 49149U 21082V   22023.58334491  .00010338  00000-0  87297-3 0  9997,2 49149  69.9978 131.8896 0003762 284.0303  24.3288 14.98325790  3571,6950.206,96.107,574.686,569.456,0.0
49149.0,STARLINK-3053,PAYLOAD,2022-01-23 22:00:00,14.98355239,0.0003697,69.998,131.0488,283.9421,21.8912,-0.0045108,-0.00053544,0.0,0 STARLINK-3053,1 49149U 21082V   22023.91667824 -.00053544  00000-0 -45108-2 0  9995,2 49149  69.9980 131.0488 0003697 283.9421  21.8912 14.98355239  3576,6950.115,96.105,574.549,569.41,0.0
49149.0,STARLINK-3053,PAYLOAD,2022-01-24 04:00:00,14.98305887,0.0003696,69.9974,130.4186,280.2928,293.6767,0.0054623999999999,0.00065659,0.0,0 STARLINK-3053,1 49149U 21082V   22024.16667824  .00065659  00000-0  54624-2 0  9994,2 49149  69.9974 130.4186 0003696 280.2928 293.6767 14.98305887 21670,6950.267,96.109,574.701,569.564,0.0
49149.0,STARLINK-3053,PAYLOAD,2022-01-24 12:00:00,14.98350964,0.0003777,69.9976,129.5779,282.7589,288.6957,-0.0017903,-0.00021402,0.0,0 STARLINK-3053,1 49149U 21082V   22024.50001157 -.00021402  00000-0 -17903-2 0  9992,2 49149  69.9976 129.5779 0003777 282.7589 288.6957 14.98350964 21726,6950.128000000002,96.106,574.618,569.368,0.0
49149.0,STARLINK-3053,PAYLOAD,2022-01-24 14:00:01,14.98333758,0.0003771,69.9976,129.3678,284.5393,16.2955,0.0011458,0.00013607,0.0,0 STARLINK-3053,1 49149U 21082V   22024.58334491  .00013607  00000-0  11458-2 0  9995,2 49149  69.9976 129.3678 0003771 284.5393  16.2955 14.98333758  3566,6950.181,96.107,574.6669999999998,569.425,0.0
49149.0,STARLINK-3053,PAYLOAD,2022-01-24 22:00:00,14.98367834,0.000374,69.9972,128.5271,284.2278,14.0956,-0.0043321,-0.00051459,0.0,0 STARLINK-3053,1 49149U 21082V   22024.91667824 -.00051459  00000-0 -43321-2 0  9994,2 49149  69.9972 128.5271 0003740 284.2278  14.0956 14.98367834  3566,6950.076,96.105,574.54,569.342,0.0
49149.0,STARLINK-3053,PAYLOAD,2022-01-25 06:00:00,14.98346208,0.0003653,69.9974,127.6865,279.6571,16.1701,-0.0010925999999999,-0.00013112,0.0,0 STARLINK-3053,1 49149U 21082V   22025.25001157 -.00013112  00000-0 -10926-2 0  9992,2 49149  69.9974 127.6865 0003653 279.6571  16.1701 14.98346208 21837,6950.143,96.106,574.547,569.469,0.0
49149.0,STARLINK-3053,PAYLOAD,2022-01-25 14:00:01,14.98314793,0.0003707,69.9975,126.8458,284.5338,8.7971,0.0012635,0.0001501,0.0,0 STARLINK-3053,1 49149U 21082V   22025.58334491  .00015010  00000-0  12635-2 0  9994,2 49149  69.9975 126.8458 0003707 284.5338   8.7971 14.98314793  3563,6950.24,96.108,574.681,569.528,0.0
49149.0,STARLINK-3053,PAYLOAD,2022-01-25 22:00:00,14.98347691,0.0003706,69.9971,126.0052,283.7947,7.0038,-0.0042093999999999,-0.00049988,0.0,0 STARLINK-3053,1 49149U 21082V   22025.91667824 -.00049988  00000-0 -42094-2 0  9995,2 49149  69.9971 126.0052 0003706 283.7947   7.0038 14.98347691  3599,6950.138000000001,96.106,574.5790000000002,569.427,0.0
49149.0,STARLINK-3053,PAYLOAD,2022-01-26 12:00:00,14.98341669,0.0003796,69.9976,124.5341,282.1094,274.2963,-0.0013726,-0.00016438,0.0,0 STARLINK-3053,1 49149U 21082V   22026.50001157 -.00016438  00000-0 -13726-2 0  9996,2 49149  69.9976 124.5341 0003796 282.1094 274.2963 14.98341669 22026,6950.156999999997,96.106,574.66,569.384,0.0
49149.0,STARLINK-3053,PAYLOAD,2022-01-26 14:00:01,14.98325841,0.0003801,69.9976,124.3239,283.7554,2.0276,0.0014857,0.00017678,0.0,0 STARLINK-3053,1 49149U 21082V   22026.58334491  .00017678  00000-0  14857-2 0  9995,2 49149  69.9976 124.3239 0003801 283.7554   2.0276 14.98325841  3572,6950.206,96.107,574.7130000000002,569.429,0.0
49149.0,STARLINK-3053,PAYLOAD,2022-01-26 22:00:00,14.9836078,0.0003821,69.9974,123.4833,282.8687,0.4002,-0.0038992,-0.00046352,0.0,0 STARLINK-3053,1 49149U 21082V   22026.91667824 -.00046352  00000-0 -38992-2 0  9990,2 49149  69.9974 123.4833 0003821 282.8687   0.4002 14.98360780  3568,6950.098000000001,96.105,574.618,569.307,0.0
49149.0,STARLINK-3053,PAYLOAD,2022-01-27 04:00:00,14.98318761,0.0003799,69.9976,122.8529,279.146,272.2552,0.004738,0.00056887,0.0,0 STARLINK-3053,1 49149U 21082V   22027.16667824  .00056887  00000-0  47380-2 0  9991,2 49149  69.9976 122.8529 0003799 279.1460 272.2552 14.98318761 22121,6950.228,96.108,574.7330000000002,569.452,0.0
49149.0,STARLINK-3053,PAYLOAD,2022-01-27 12:45:43,14.98342336,0.000386,69.9962,121.9328,281.2483,78.8242,1.8815e-05,1.31e-06,0.0,0 STARLINK-3053,1 49149U 21082V   22027.53175102  .00000131  00000-0  18815-4 0  9999,2 49149  69.9962 121.9328 0003860 281.2483  78.8242 14.98342336 22166,6950.155,96.106,574.703,569.337,0.0
49149.0,STARLINK-3053,PAYLOAD,2022-01-27 15:57:59,14.98343444,0.0003852,69.9962,121.5961,281.2582,78.8144,3.1039e-05,2.77e-06,0.0,0 STARLINK-3053,1 49149U 21082V   22027.66526889  .00000277  00000-0  31039-4 0  9999,2 49149  69.9962 121.5961 0003852 281.2582  78.8144 14.98343444 22191,6950.151,96.106,574.694,569.339,0.0
49149.0,STARLINK-3053,PAYLOAD,2022-01-27 22:00:00,14.98342628,0.0003797,69.9978,120.9616,282.7869,352.9666,-0.0036806,-0.00043754,0.0,0 STARLINK-3053,1 49149U 21082V   22027.91667824 -.00043754  00000-0 -36806-2 0  9996,2 49149  69.9978 120.9616 0003797 282.7869 352.9666 14.98342628  3557,6950.154,96.106,574.658,569.38,0.0
